NORAD_CAT_ID,OBJECT_NAME,OBJECT_TYPE,EPOCH,MEAN_MOTION,ECCENTRICITY,INCLINATION,RA_OF_ASC_NODE,ARG_OF_PERICENTER,MEAN_ANOMALY,BSTAR,MEAN_MOTION_DOT,MEAN_MOTION_DDOT,TLE_LINE0,TLE_LINE1,TLE_LINE2,SEMIMAJOR_AXIS,PERIOD,APOGEE,PERIGEE,DECAYED
52373.0,STARLINK-3550,PAYLOAD,2024-07-14 23:08:15,15.0885058,0.0001473,53.2161,14.8588,95.3568,264.7592,0.00028121,4.192e-05,0.0,0 STARLINK-3550,1 52373U 22045AU  24196.96407240  .00004192  00000-0  28121-3 0  9990,2 52373  53.2161  14.8588 0001473  95.3568 264.7592 15.08850580124939,6917.848,95.437,540.732,538.694,0.0
52373.0,STARLINK-3550,PAYLOAD,2024-07-15 11:51:21,15.08846339,0.0002073,53.2174,12.4808,93.518,266.6049,0.00031611,4.747e-05,0.0,0 STARLINK-3550,1 52373U 22045AU  24197.49399590  .00004747  00000-0  31611-3 0  9991,2 52373  53.2174  12.4808 0002073  93.5180 266.6049 15.08846339125014,6917.861,95.437,541.16,538.292,0.0
52373.0,STARLINK-3550,PAYLOAD,2024-07-15 18:12:53,15.0883965,0.0001535,53.2169,11.2934,95.7,264.4167,6.2275e-05,7.03e-06,0.0,0 STARLINK-3550,1 52373U 22045AU  24197.75895551  .00000703  00000-0  62275-4 0  9997,2 52373  53.2169  11.2934 0001535  95.7000 264.4167 15.08839650125051,6917.881,95.438,540.808,538.685,0.0
52373.0,STARLINK-3550,PAYLOAD,2024-07-16 14:52:54,15.08843504,0.0001495,53.2176,7.4274,91.5848,268.5315,0.00055769,8.6e-05,0.0,0 STARLINK-3550,1 52373U 22045AU  24198.62007821  .00008600  00000-0  55769-3 0  9992,2 52373  53.2176   7.4274 0001495  91.5848 268.5315 15.08843504125189,6917.87,95.437,540.769,538.7,0.0
52373.0,STARLINK-3550,PAYLOAD,2024-07-16 16:28:17,15.08842417,0.0001471,53.2173,7.1301,91.0127,269.1034,0.00047068,7.211e-05,0.0,0 STARLINK-3550,1 52373U 22045AU  24198.68631837  .00007211  00000-0  47068-3 0  9998,2 52373  53.2173   7.1301 0001471  91.0127 269.1034 15.08842417125191,6917.873,95.437,540.756,538.72,0.0
52373.0,STARLINK-3550,PAYLOAD,2024-07-17 11:32:55,15.08842264,0.0001448,53.2173,3.5615,86.8268,273.289,0.00022948,3.366e-05,0.0,0 STARLINK-3550,1 52373U 22045AU  24199.48119905  .00003366  00000-0  22948-3 0  9991,2 52373  53.2173   3.5615 0001448  86.8268 273.2890 15.08842264125311,6917.873,95.437,540.74,538.737,0.0
52373.0,STARLINK-3550,PAYLOAD,2024-07-17 14:43:42,15.08835636,0.0001445,53.2175,2.9655,89.3068,270.809,-2.0047e-05,-6.07e-06,0.0,0 STARLINK-3550,1 52373U 22045AU  24199.61368065 -.00000607  00000-0 -20047-4 0  9995,2 52373  53.2175   2.9655 0001445  89.3068 270.8090 15.08835636125335,6917.894,95.438,540.758,538.759,0.0
52373.0,STARLINK-3550,PAYLOAD,2024-07-17 17:54:28,15.08831432,0.0001304,53.2175,2.3695,91.4823,268.6319,8.3984e-06,-1.54e-06,0.0,0 STARLINK-3550,1 52373U 22045AU  24199.74616414 -.00000154  00000-0  83984-5 0  9999,2 52373  53.2175   2.3695 0001304  91.4823 268.6319 15.08831432125351,6917.907,95.438,540.674,538.869,0.0
52373.0,STARLINK-3550,PAYLOAD,2024-07-18 03:26:46,15.08847731,0.0001247,53.2186,0.5894,95.5397,264.5737,0.00021115,3.075e-05,0.0,0 STARLINK-3550,1 52373U 22045AU  24200.14359578  .00003075  00000-0  21115-3 0  9991,2 52373  53.2186   0.5894 0001247  95.5397 264.5737 15.08847731125416,6917.857,95.437,540.584,538.859,0.0
52373.0,STARLINK-3550,PAYLOAD,2024-07-18 11:23:43,15.08822912,0.0001246,53.2184,359.0983,95.0389,265.0745,-0.00015306,-2.722e-05,0.0,0 STARLINK-3550,1 52373U 22045AU  24200.47480909 -.00002722  00000-0 -15306-3 0  9995,2 52373  53.2184 359.0983 0001246  95.0389 265.0745 15.08822912125464,6917.933,95.439,540.66,538.936,0.0
52373.0,STARLINK-3550,PAYLOAD,2024-07-18 14:34:29,15.08831373,0.0001588,53.218,358.5083,92.7027,267.4146,-3.4894e-06,-3.44e-06,0.0,0 STARLINK-3550,1 52373U 22045AU  24200.60728726 -.00000344  00000-0 -34894-5 0  9995,2 52373  53.2180 358.5083 0001588  92.7027 267.4146 15.08831373125481,6917.907,95.438,540.87,538.673,0.0
52373.0,STARLINK-3550,PAYLOAD,2024-07-18 17:45:15,15.08837538,0.0001259,53.2177,357.9114,93.2961,266.8175,7.6556e-05,9.31e-06,0.0,0 STARLINK-3550,1 52373U 22045AU  24200.73976408  .00000931  00000-0  76556-4 0  9991,2 52373  53.2177 357.9114 0001259  93.2961 266.8175 15.08837538125500,6917.888,95.438,540.624,538.882,0.0
52373.0,STARLINK-3550,PAYLOAD,2024-07-19 14:25:16,15.08833977,0.0001393,53.2188,354.0483,96.223,263.8921,0.00014082,1.954e-05,0.0,0 STARLINK-3550,1 52373U 22045AU  24201.60088903  .00001954  00000-0  14082-3 0  9993,2 52373  53.2188 354.0483 0001393  96.2230 263.8921 15.08833977125633,6917.899,95.438,540.727,538.8,0.0
52373.0,STARLINK-3550,PAYLOAD,2024-07-19 17:36:02,15.08838376,0.0001255,53.218,353.453,88.5583,271.5553,0.00019721,2.852e-05,0.0,0 STARLINK-3550,1 52373U 22045AU  24201.73336750  .00002852  00000-0  19721-3 0  9996,2 52373  53.2180 353.4530 0001255  88.5583 271.5553 15.08838376125650,6917.885,95.438,540.619,538.882,0.0
52373.0,STARLINK-3550,PAYLOAD,2024-07-20 14:16:04,15.08828689,0.0001211,53.2176,349.5867,82.949,277.164,0.00027834,4.143e-05,0.0,0 STARLINK-3550,1 52373U 22045AU  24202.59449624  .00004143  00000-0  27834-3 0  9995,2 52373  53.2176 349.5867 0001211  82.9490 277.1640 15.08828689125780,6917.915,95.438,540.618,538.942,0.0
52373.0,STARLINK-3550,PAYLOAD,2024-07-20 17:26:50,15.08836744,0.0001431,53.219,348.9895,75.803,284.3121,8.8767e-05,1.125e-05,0.0,0 STARLINK-3550,1 52373U 22045AU  24202.72697242  .00001125  00000-0  88767-4 0  9991,2 52373  53.2190 348.9895 0001431  75.8030 284.3121 15.08836744125803,6917.89,95.438,540.745,538.765,0.0
52373.0,STARLINK-3550,PAYLOAD,2024-07-21 14:06:51,15.08841599,0.0001353,53.2188,345.1245,78.3777,281.7367,8.5879e-05,1.079e-05,0.0,0 STARLINK-3550,1 52373U 22045AU  24203.58809110  .00001079  00000-0  85879-4 0  9994,2 52373  53.2188 345.1245 0001353  78.3777 281.7367 15.08841599125938,6917.876,95.437,540.676,538.805,0.0
52373.0,STARLINK-3550,PAYLOAD,2024-07-21 17:17:37,15.08844809,0.0001321,53.2193,344.5297,79.4731,280.641,9.0627e-05,1.155e-05,0.0,0 STARLINK-3550,1 52373U 22045AU  24203.72056969  .00001155  00000-0  90627-4 0  9998,2 52373  53.2193 344.5297 0001321  79.4731 280.6410 15.08844809125957,6917.866,95.437,540.645,538.817,0.0
52373.0,STARLINK-3550,PAYLOAD,2024-07-22 09:11:28,15.08844284,0.0001163,53.2187,341.555,100.8661,259.2462,0.00011116,1.482e-05,0.0,0 STARLINK-3550,1 52373U 22045AU  24204.38296769  .00001482  00000-0  11116-3 0  9993,2 52373  53.2187 341.5550 0001163 100.8661 259.2462 15.08844284126052,6917.867,95.437,540.537,538.928,0.0
52373.0,STARLINK-3550,PAYLOAD,2024-07-23 15:23:48,15.08843422,0.0001155,53.2186,335.905,93.9556,266.1568,6.4107e-05,7.33e-06,0.0,0 STARLINK-3550,1 52373U 22045AU  24205.64152910  .00000733  00000-0  64107-4 0  9999,2 52373  53.2186 335.9050 0001155  93.9556 266.1568 15.08843422126247,6917.87,95.437,540.534,538.936,0.0
52373.0,STARLINK-3550,PAYLOAD,2024-07-23 18:34:34,15.08841782,0.0001131,53.2187,335.3106,95.3306,264.7815,4.6966e-05,4.6e-06,0.0,0 STARLINK-3550,1 52373U 22045AU  24205.77401018  .00000460  00000-0  46966-4 0  9999,2 52373  53.2187 335.3106 0001131  95.3306 264.7815 15.08841782126265,6917.875,95.437,540.522,538.958,0.0
52373.0,STARLINK-3550,PAYLOAD,2024-07-24 08:53:03,15.08836647,0.0001186,53.2184,332.6357,86.6771,273.4357,7.2608e-06,-1.72e-06,0.0,0 STARLINK-3550,1 52373U 22045AU  24206.37017475 -.00000172  00000-0  72608-5 0  9990,2 52373  53.2184 332.6357 0001186  86.6771 273.4357 15.08836647126351,6917.891,95.438,540.576,538.935,0.0
52373.0,STARLINK-3550,PAYLOAD,2024-07-24 18:25:21,15.08839868,0.0001178,53.2154,330.851,92.3979,267.7148,6.4161e-05,7.33e-06,0.0,0 STARLINK-3550,1 52373U 22045AU  24206.76761098  .00000733  00000-0  64161-4 0  9996,2 52373  53.2154 330.8510 0001178  92.3979 267.7148 15.08839868126413,6917.881,95.438,540.561,538.931,0.0
52373.0,STARLINK-3550,PAYLOAD,2024-07-25 18:16:09,15.08834142,0.0001219,53.2149,326.3917,85.5429,274.5703,8.0253e-05,9.89e-06,0.0,0 STARLINK-3550,1 52373U 22045AU  24207.76121591  .00000989  00000-0  80253-4 0  9998,2 52373  53.2149 326.3917 0001219  85.5429 274.5703 15.08834142126567,6917.898,95.438,540.607,538.92,0.0
52373.0,STARLINK-3550,PAYLOAD,2024-07-26 00:37:40,15.08849485,0.0001247,53.2209,325.2057,85.3859,274.7275,-5.6042e-05,-1.18e-05,0.0,0 STARLINK-3550,1 52373U 22045AU  24208.02616782 -.00001180  00000-0 -56042-4 0  9994,2 52373  53.2209 325.2057 0001247  85.3859 274.7275 15.08849485126600,6917.851,95.437,540.579,538.854,0.0
52373.0,STARLINK-3550,PAYLOAD,2024-07-26 06:59:13,15.08843339,0.0001761,53.219,324.017,78.4187,281.7003,5.1468e-05,5.31e-06,0.0,0 STARLINK-3550,1 52373U 22045AU  24208.29113094  .00000531  00000-0  51468-4 0  9995,2 52373  53.2190 324.0170 0001761  78.4187 281.7003 15.08843339126643,6917.87,95.437,540.953,538.517,0.0
52373.0,STARLINK-3550,PAYLOAD,2024-07-26 16:31:32,15.08837804,0.000153,53.2161,322.2296,87.6393,272.4774,3.6059e-05,2.86e-06,0.0,0 STARLINK-3550,1 52373U 22045AU  24208.68857530  .00000286  00000-0  36059-4 0  9994,2 52373  53.2161 322.2296 0001530  87.6393 272.4774 15.08837804126704,6917.887,95.438,540.811,538.694,0.0
52373.0,STARLINK-3550,PAYLOAD,2024-07-28 00:19:16,15.08835664,0.0001322,53.2151,316.2823,89.4066,270.7078,-7.5876e-05,-1.495e-05,0.0,0 STARLINK-3550,1 52373U 22045AU  24210.01338463 -.00001495  00000-0 -75876-4 0  9998,2 52373  53.2151 316.2823 0001322  89.4066 270.7078 15.08835664126900,6917.894,95.438,540.673,538.844,0.0
52373.0,STARLINK-3550,PAYLOAD,2024-07-28 14:37:44,15.08838844,0.0001386,53.2174,313.6064,92.8207,267.2943,6.5443e-05,7.54e-06,0.0,0 STARLINK-3550,1 52373U 22045AU  24210.60954041  .00000754  00000-0  65443-4 0  9993,2 52373  53.2174 313.6064 0001386  92.8207 267.2943 15.08838844126992,6917.884,95.438,540.708,538.79,0.0
52373.0,STARLINK-3550,PAYLOAD,2024-07-30 00:00:48,15.08854055,0.0001392,53.218,307.3603,92.488,267.6271,0.00016931,2.409e-05,0.0,0 STARLINK-3550,1 52373U 22045AU  24212.00056478  .00002409  00000-0  16931-3 0  9992,2 52373  53.2180 307.3603 0001392  92.4880 267.6271 15.08854055127203,6917.837,95.437,540.665,538.739,0.0
